start=new Date('2022-07-27T00:00:00.000Z').valueOf();
sats=[{"OBJECT_TYPE":"PAYLOAD","EPHEMERIS_TYPE":"0","CLASSIFICATION_TYPE":"U","CENTER_NAME":"EARTH","LAUNCH_DATE":"2021-12-02","SITE":"AFETR","MEAN_MOTION_DDOT":"0.0000000000000","OBJECT_ID":"2021-115AZ","ECCENTRICITY":"0.00015190","ARG_OF_PERICENTER":"62.8093","MEAN_MOTION":"15.08832061","REF_FRAME":"TEME","INCLINATION":"53.2176","OBJECT_NAME":"STARLINK-3201","COUNTRY_CODE":"US","MEAN_MOTION_DOT":"0.00000398","PERIAPSIS":"538.719","PERIOD":"95.438","NORAD_CAT_ID":"49771","EPOCH":"2022-07-26T17:10:26.323680","DECAY_DATE":null,"MEAN_ANOMALY":"297.3054","ELEMENT_SET_NO":"999","TLE_LINE1":"1 49771U 21115AZ  22207.71558245  .00000398  00000-0  43079-4 0  9995","MEAN_ELEMENT_THEORY":"SGP4","RA_OF_ASC_NODE":"313.6959","RCS_SIZE":"LARGE","FILE":"3522469","TIME_SYSTEM":"UTC","GP_ID":"208930067","APOAPSIS":"540.820","BSTAR":"0.00004307900000","REV_AT_EPOCH":"3610","SEMIMAJOR_AXIS":"6917.905","TLE_LINE2":"2 49771  53.2176 313.6959 0001519  62.8093 297.3054 15.08832061 36108"},{"OBJECT_TYPE":"PAYLOAD","EPHEMERIS_TYPE":"0","CLASSIFICATION_TYPE":"U","LAUNCH_DATE":"2021-12-18","MEAN_MOTION_DDOT":"0.0000000000000","SITE":"AFWTR","CENTER_NAME":"EARTH","OBJECT_ID":"2021-125A","ECCENTRICITY":"0.00019400","ARG_OF_PERICENTER":"72.5091","MEAN_MOTION":"15.08837167","MEAN_MOTION_DOT":"0.00000817","REF_FRAME":"TEME","INCLINATION":"53.2186","OBJECT_NAME":"STARLINK-3317","COUNTRY_CODE":"US","EPOCH":"2022-07-26T20:45:06.153984","DECAY_DATE":null,"PERIAPSIS":"538.412","PERIOD":"95.438","NORAD_CAT_ID":"50156","ELEMENT_SET_NO":"999","TLE_LINE1":"1 50156U 21125A   22207.86465456  .00000817  00000-0  69467-4 0  9997","MEAN_ANOMALY":"287.6113","RA_OF_ASC_NODE":"63.0247","RCS_SIZE":"LARGE","FILE":"3522469","TIME_SYSTEM":"UTC","GP_ID":"208930840","APOAPSIS":"541.096","MEAN_ELEMENT_THEORY":"SGP4","BSTAR":"0.00006946700000","REV_AT_EPOCH":"3708","TLE_LINE2":"2 50156  53.2186  63.0247 0001940  72.5091 287.6113 15.08837167 37086","SEMIMAJOR_AXIS":"6917.889"},{"ARG_OF_PERICENTER":"58.0374","MEAN_MOTION":"15.08835777","OBJECT_ID":"2021-125B","ECCENTRICITY":"0.00022160","MEAN_MOTION_DOT":"0.00000214","COUNTRY_CODE":"US","OBJECT_NAME":"STARLINK-3313","REF_FRAME":"TEME","INCLINATION":"53.2156","EPHEMERIS_TYPE":"0","CLASSIFICATION_TYPE":"U","OBJECT_TYPE":"PAYLOAD","MEAN_MOTION_DDOT":"0.0000000000000","SITE":"AFWTR","LAUNCH_DATE":"2021-12-18","CENTER_NAME":"EARTH","GP_ID":"208931091","APOAPSIS":"541.291","RA_OF_ASC_NODE":"73.2170","RCS_SIZE":"LARGE","FILE":"3522469","TIME_SYSTEM":"UTC","MEAN_ELEMENT_THEORY":"SGP4","SEMIMAJOR_AXIS":"6917.893","TLE_LINE2":"2 50157  53.2156  73.2170 0002216  58.0374 302.0834 15.08835777 36943","BSTAR":"0.00003155800000","REV_AT_EPOCH":"3694","DECAY_DATE":null,"EPOCH":"2022-07-26T19:44:06.110016","PERIOD":"95.438","NORAD_CAT_ID":"50157","PERIAPSIS":"538.225","TLE_LINE1":"1 50157U 21125B   22207.82229294  .00000214  00000-0  31558-4 0  9993","ELEMENT_SET_NO":"999","MEAN_ANOMALY":"302.0834"},{"MEAN_ANOMALY":"304.2746","TLE_LINE1":"1 50158U 21125C   22207.87749620  .00000734  00000-0  64208-4 0  9994","ELEMENT_SET_NO":"999","PERIOD":"95.438","NORAD_CAT_ID":"50158","PERIAPSIS":"538.373","DECAY_DATE":null,"EPOCH":"2022-07-26T21:03:35.671680","TLE_LINE2":"2 50158  53.2169  72.9779 0002012  55.8437 304.2746 15.08833580 36977","SEMIMAJOR_AXIS":"6917.900","BSTAR":"0.00006420800000","REV_AT_EPOCH":"3697","MEAN_ELEMENT_THEORY":"SGP4","GP_ID":"208931842","APOAPSIS":"541.157","RA_OF_ASC_NODE":"72.9779","RCS_SIZE":"LARGE","FILE":"3522469","TIME_SYSTEM":"UTC","CENTER_NAME":"EARTH","SITE":"AFWTR","MEAN_MOTION_DDOT":"0.0000000000000","LAUNCH_DATE":"2021-12-18","CLASSIFICATION_TYPE":"U","EPHEMERIS_TYPE":"0","OBJECT_TYPE":"PAYLOAD","OBJECT_NAME":"STARLINK-3309","COUNTRY_CODE":"US","REF_FRAME":"TEME","INCLINATION":"53.2169","MEAN_MOTION_DOT":"0.00000734","ARG_OF_PERICENTER":"55.8437","MEAN_MOTION":"15.08833580","OBJECT_ID":"2021-125C","ECCENTRICITY":"0.00020120"},{"MEAN_ELEMENT_THEORY":"SGP4","APOAPSIS":"541.352","GP_ID":"208930590","FILE":"3522469","TIME_SYSTEM":"UTC","RA_OF_ASC_NODE":"72.9887","RCS_SIZE":"LARGE","TLE_LINE2":"2 50159  53.2166  72.9887 0002301  59.8884 300.2336 15.08835252 36908","SEMIMAJOR_AXIS":"6917.895","REV_AT_EPOCH":"3690","BSTAR":"0.00006521200000","NORAD_CAT_ID":"50159","PERIOD":"95.438","PERIAPSIS":"538.168","DECAY_DATE":null,"EPOCH":"2022-07-26T20:58:18.197472","MEAN_ANOMALY":"300.2336","TLE_LINE1":"1 50159U 21125D   22207.87382173  .00000750  00000-0  65212-4 0  9995","ELEMENT_SET_NO":"999","MEAN_MOTION":"15.08835252","ARG_OF_PERICENTER":"59.8884","ECCENTRICITY":"0.00023010","OBJECT_ID":"2021-125D","OBJECT_NAME":"STARLINK-3297","COUNTRY_CODE":"US","INCLINATION":"53.2166","REF_FRAME":"TEME","MEAN_MOTION_DOT":"0.00000750","EPHEMERIS_TYPE":"0","CLASSIFICATION_TYPE":"U","OBJECT_TYPE":"PAYLOAD","CENTER_NAME":"EARTH","SITE":"AFWTR","MEAN_MOTION_DDOT":"0.0000000000000","LAUNCH_DATE":"2021-12-18"},{"EPHEMERIS_TYPE":"0","CLASSIFICATION_TYPE":"U","OBJECT_TYPE":"PAYLOAD","SITE":"AFWTR","MEAN_MOTION_DDOT":"0.0000000000000","LAUNCH_DATE":"2021-12-18","CENTER_NAME":"EARTH","ARG_OF_PERICENTER":"54.3459","MEAN_MOTION":"15.08833505","OBJECT_ID":"2021-125E","ECCENTRICITY":"0.00018930","MEAN_MOTION_DOT":"0.00000483","OBJECT_NAME":"STARLINK-3288","COUNTRY_CODE":"US","REF_FRAME":"TEME","INCLINATION":"53.2179","DECAY_DATE":null,"EPOCH":"2022-07-26T21:08:53.481120","PERIOD":"95.438","NORAD_CAT_ID":"50160","PERIAPSIS":"538.456","TLE_LINE1":"1 50160U 21125E   22207.88117455  .00000483  00000-0  48426-4 0  9998","ELEMENT_SET_NO":"999","MEAN_ANOMALY":"305.7709","GP_ID":"208930340","APOAPSIS":"541.075","RA_OF_ASC_NODE":"72.9655","RCS_SIZE":"LARGE","TIME_SYSTEM":"UTC","FILE":"3522469","MEAN_ELEMENT_THEORY":"SGP4","SEMIMAJOR_AXIS":"6917.900","TLE_LINE2":"2 50160  53.2179  72.9655 0001893  54.3459 305.7709 15.08833505 36914","BSTAR":"0.00004842600000","REV_AT_EPOCH":"3691"},{"CENTER_NAME":"EARTH","LAUNCH_DATE":"2021-12-18","MEAN_MOTION_DDOT":"0.0000000000000","SITE":"AFWTR","OBJECT_TYPE":"PAYLOAD","CLASSIFICATION_TYPE":"U","EPHEMERIS_TYPE":"0","REF_FRAME":"TEME","INCLINATION":"53.2149","OBJECT_NAME":"STARLINK-3304","COUNTRY_CODE":"US","MEAN_MOTION_DOT":"0.00001500","OBJECT_ID":"2021-125F","ECCENTRICITY":"0.00018390","ARG_OF_PERICENTER":"57.3593","MEAN_MOTION":"15.08843043","MEAN_ANOMALY":"302.7577","ELEMENT_SET_NO":"999","TLE_LINE1":"1 50161U 21125F   22207.88485376  .00001500  00000-0  11234-3 0  9996","PERIAPSIS":"538.464","PERIOD":"95.437","NORAD_CAT_ID":"50161","EPOCH":"2022-07-26T21:14:11.364864","DECAY_DATE":null,"BSTAR":"0.00011234000000","REV_AT_EPOCH":"3690","TLE_LINE2":"2 50161  53.2149  72.9369 0001839  57.3593 302.7577 15.08843043 36903","SEMIMAJOR_AXIS":"6917.871","MEAN_ELEMENT_THEORY":"SGP4","RCS_SIZE":"LARGE","RA_OF_ASC_NODE":"72.9369","TIME_SYSTEM":"UTC","FILE":"3522469","GP_ID":"208931592","APOAPSIS":"541.008"},{"ARG_OF_PERICENTER":"11.5171","MEAN_MOTION":"15.79333123","OBJECT_ID":"2021-125G","ECCENTRICITY":"0.00041570","COUNTRY_CODE":"US","OBJECT_NAME":"STARLINK-3303","REF_FRAME":"TEME","INCLINATION":"53.2039","MEAN_MOTION_DOT":"0.00062728","CLASSIFICATION_TYPE":"U","EPHEMERIS_TYPE":"0","OBJECT_TYPE":"PAYLOAD","CENTER_NAME":"EARTH","MEAN_MOTION_DDOT":"0.0000000000000","SITE":"AFWTR","LAUNCH_DATE":"2021-12-18","MEAN_ELEMENT_THEORY":"SGP4","GP_ID":"208931342","APOAPSIS":"335.121","RCS_SIZE":"LARGE","RA_OF_ASC_NODE":"345.4415","FILE":"3522469","TIME_SYSTEM":"UTC","TLE_LINE2":"2 50162  53.2039 345.4415 0004157  11.5171 155.4179 15.79333123  1300","SEMIMAJOR_AXIS":"6710.466","BSTAR":"0.00034211000000","REV_AT_EPOCH":"130","PERIOD":"91.178","NORAD_CAT_ID":"50162","PERIAPSIS":"329.541","DECAY_DATE":null,"EPOCH":"2022-07-26T22:00:00.999936","MEAN_ANOMALY":"155.4179","TLE_LINE1":"1 50162U 21125G   22207.91667824  .00062728  00000-0  34211-3 0  9990","ELEMENT_SET_NO":"999"},{"LAUNCH_DATE":"2021-12-18","MEAN_MOTION_DDOT":"0.0000000000000","SITE":"AFWTR","CENTER_NAME":"EARTH","OBJECT_TYPE":"PAYLOAD","CLASSIFICATION_TYPE":"U","EPHEMERIS_TYPE":"0","MEAN_MOTION_DOT":"-0.00000121","INCLINATION":"53.2179","REF_FRAME":"TEME","COUNTRY_CODE":"US","OBJECT_NAME":"STARLINK-3306","ECCENTRICITY":"0.00017530","OBJECT_ID":"2021-125H","MEAN_MOTION":"15.08838293","ARG_OF_PERICENTER":"62.5578","ELEMENT_SET_NO":"999","TLE_LINE1":"1 50163U 21125H   22207.86925120 -.00000121  00000-0  10517-4 0  9995","MEAN_ANOMALY":"297.5592","EPOCH":"2022-07-26T20:51:43.303680","DECAY_DATE":null,"PERIAPSIS":"538.538","NORAD_CAT_ID":"50163","PERIOD":"95.438","REV_AT_EPOCH":"3718","BSTAR":"0.00001051700000","TLE_LINE2":"2 50163  53.2179  52.9953 0001753  62.5578 297.5592 15.08838293 37181","SEMIMAJOR_AXIS":"6917.886","TIME_SYSTEM":"UTC","FILE":"3522469","RCS_SIZE":"LARGE","RA_OF_ASC_NODE":"52.9953","APOAPSIS":"540.963","GP_ID":"208930090","MEAN_ELEMENT_THEORY":"SGP4"},{"MEAN_ELEMENT_THEORY":"SGP4","GP_ID":"208930841","APOAPSIS":"540.993","RA_OF_ASC_NODE":"73.0094","RCS_SIZE":"LARGE","TIME_SYSTEM":"UTC","FILE":"3522469","TLE_LINE2":"2 50165  53.2175  73.0094 0001816  61.5013 298.6162 15.08842933 36957","SEMIMAJOR_AXIS":"6917.871","BSTAR":"0.00012211000000","REV_AT_EPOCH":"3695","PERIOD":"95.437","NORAD_CAT_ID":"50165","PERIAPSIS":"538.480","DECAY_DATE":null,"EPOCH":"2022-07-26T20:52:59.791872","MEAN_ANOMALY":"298.6162","TLE_LINE1":"1 50165U 21125K   22207.87013648  .00001656  00000-0  12211-3 0  9996","ELEMENT_SET_NO":"999","ARG_OF_PERICENTER":"61.5013","MEAN_MOTION":"15.08842933","OBJECT_ID":"2021-125K","ECCENTRICITY":"0.00018160","OBJECT_NAME":"STARLINK-3298","COUNTRY_CODE":"US","REF_FRAME":"TEME","INCLINATION":"53.2175","MEAN_MOTION_DOT":"0.00001656","CLASSIFICATION_TYPE":"U","EPHEMERIS_TYPE":"0","OBJECT_TYPE":"PAYLOAD","CENTER_NAME":"EARTH","MEAN_MOTION_DDOT":"0.0000000000000","SITE":"AFWTR","LAUNCH_DATE":"2021-12-18"}];
